[
  {
    "OBJECT_NAME": "STARLINK-30198",
    "OBJECT_ID": "23096A",
    "EPOCH": "2025-11-11T05:32:22.797888",
    "MEAN_MOTION": 15.02541141,
    "ECCENTRICITY": 0.0001174,
    "INCLINATION": 43.0029,
    "RA_OF_ASC_NODE": 147.2212,
    "ARG_OF_PERICENTER": 270.0327,
    "MEAN_ANOMALY": 90.0381,
    "EPHEMERIS_TYPE": 0,
    "CLASSIFICATION_TYPE": "U",
    "NORAD_CAT_ID": 57290,
    "ELEMENT_SET_NO": 999,
    "REV_AT_EPOCH": 12979,
    "BSTAR": 6.9165e-05,
    "MEAN_MOTION_DOT": 7.31e-06,
    "MEAN_MOTION_DDOT": 0.0,
    "TLE_LINE1": "1 57290U 23096A   25315.23081942  .00000731  00000+0  69165-4 0  9999",
    "TLE_LINE2": "2 57290  43.0029 147.2212 0001174 270.0327  90.0381 15.02541141129799",
    "COMMENT": "Grouped by shell and plane from TLE"
  },
  {
    "OBJECT_NAME": "STARLINK-30239",
    "OBJECT_ID": "23096B",
    "EPOCH": "2025-11-11T05:27:34.899264",
    "MEAN_MOTION": 15.02536099,
    "ECCENTRICITY": 0.0001202,
    "INCLINATION": 43.003,
    "RA_OF_ASC_NODE": 147.1946,
    "ARG_OF_PERICENTER": 264.0438,
    "MEAN_ANOMALY": 96.0267,
    "EPHEMERIS_TYPE": 0,
    "CLASSIFICATION_TYPE": "U",
    "NORAD_CAT_ID": 57291,
    "ELEMENT_SET_NO": 999,
    "REV_AT_EPOCH": 12979,
    "BSTAR": 8.0089e-05,
    "MEAN_MOTION_DOT": 8.78e-06,
    "MEAN_MOTION_DDOT": 0.0,
    "TLE_LINE1": "1 57291U 23096B   25315.22748726  .00000878  00000+0  80089-4 0  9999",
    "TLE_LINE2": "2 57291  43.0030 147.1946 0001202 264.0438  96.0267 15.02536099129798",
    "COMMENT": "Grouped by shell and plane from TLE"
  },
  {
    "OBJECT_NAME": "STARLINK-30236",
    "OBJECT_ID": "23096L",
    "EPOCH": "2025-11-11T06:29:44.799360",
    "MEAN_MOTION": 15.02549587,
    "ECCENTRICITY": 0.0001229,
    "INCLINATION": 43.0029,
    "RA_OF_ASC_NODE": 146.6535,
    "ARG_OF_PERICENTER": 267.357,
    "MEAN_ANOMALY": 92.7132,
    "EPHEMERIS_TYPE": 0,
    "CLASSIFICATION_TYPE": "U",
    "NORAD_CAT_ID": 57300,
    "ELEMENT_SET_NO": 999,
    "REV_AT_EPOCH": 12984,
    "BSTAR": 6.1627e-05,
    "MEAN_MOTION_DOT": 6.29e-06,
    "MEAN_MOTION_DDOT": 0.0,
    "TLE_LINE1": "1 57300U 23096L   25315.27065740  .00000629  00000+0  61627-4 0  9994",
    "TLE_LINE2": "2 57300  43.0029 146.6535 0001229 267.3570  92.7132 15.02549587129843",
    "COMMENT": "Grouped by shell and plane from TLE"
  },
  {
    "OBJECT_NAME": "STARLINK-30201",
    "OBJECT_ID": "23096M",
    "EPOCH": "2025-11-11T06:24:58.742784",
    "MEAN_MOTION": 15.02526306,
    "ECCENTRICITY": 9.13e-05,
    "INCLINATION": 43.0027,
    "RA_OF_ASC_NODE": 146.6335,
    "ARG_OF_PERICENTER": 256.6972,
    "MEAN_ANOMALY": 103.3769,
    "EPHEMERIS_TYPE": 0,
    "CLASSIFICATION_TYPE": "U",
    "NORAD_CAT_ID": 57301,
    "ELEMENT_SET_NO": 999,
    "REV_AT_EPOCH": 12890,
    "BSTAR": 0.0,
    "MEAN_MOTION_DOT": -6.76e-06,
    "MEAN_MOTION_DDOT": 0.0,
    "TLE_LINE1": "1 57301U 23096M   25315.26734656 -.00000676  00000+0 -34968-4 0  9995",
    "TLE_LINE2": "2 57301  43.0027 146.6335 0000913 256.6972 103.3769 15.02526306128901",
    "COMMENT": "Grouped by shell and plane from TLE"
  },
  {
    "OBJECT_NAME": "STARLINK-30233",
    "OBJECT_ID": "23096N",
    "EPOCH": "2025-11-10T22:21:31.128192",
    "MEAN_MOTION": 15.02544061,
    "ECCENTRICITY": 0.0001106,
    "INCLINATION": 43.0025,
    "RA_OF_ASC_NODE": 148.392,
    "ARG_OF_PERICENTER": 246.9809,
    "MEAN_ANOMALY": 113.0917,
    "EPHEMERIS_TYPE": 0,
    "CLASSIFICATION_TYPE": "U",
    "NORAD_CAT_ID": 57302,
    "ELEMENT_SET_NO": 999,
    "REV_AT_EPOCH": 12885,
    "BSTAR": 0.00013531,
    "MEAN_MOTION_DOT": 1.625e-05,
    "MEAN_MOTION_DDOT": 0.0,
    "TLE_LINE1": "1 57302U 23096N   25314.93161028  .00001625  00000+0  13531-3 0  9991",
    "TLE_LINE2": "2 57302  43.0025 148.3920 0001106 246.9809 113.0917 15.02544061128850",
    "COMMENT": "Grouped by shell and plane from TLE"
  },
  {
    "OBJECT_NAME": "STARLINK-6215",
    "OBJECT_ID": "23099AR",
    "EPOCH": "2025-11-11T06:21:42.191424",
    "MEAN_MOTION": 15.02535282,
    "ECCENTRICITY": 0.0002539,
    "INCLINATION": 43.0088,
    "RA_OF_ASC_NODE": 146.2911,
    "ARG_OF_PERICENTER": 267.8596,
    "MEAN_ANOMALY": 92.1956,
    "EPHEMERIS_TYPE": 0,
    "CLASSIFICATION_TYPE": "U",
    "NORAD_CAT_ID": 57367,
    "ELEMENT_SET_NO": 999,
    "REV_AT_EPOCH": 12935,
    "BSTAR": 0.0,
    "MEAN_MOTION_DOT": -1.465e-05,
    "MEAN_MOTION_DDOT": 0.0,
    "TLE_LINE1": "1 57367U 23099AR  25315.26507166 -.00001465  00000+0 -93359-4 0  9990",
    "TLE_LINE2": "2 57367  43.0088 146.2911 0002539 267.8596  92.1956 15.02535282129354",
    "COMMENT": "Grouped by shell and plane from TLE"
  },
  {
    "OBJECT_NAME": "STARLINK-6369",
    "OBJECT_ID": "23099AY",
    "EPOCH": "2025-11-10T19:29:12.418656",
    "MEAN_MOTION": 15.02535284,
    "ECCENTRICITY": 0.000125,
    "INCLINATION": 43.0025,
    "RA_OF_ASC_NODE": 148.9301,
    "ARG_OF_PERICENTER": 269.2952,
    "MEAN_ANOMALY": 90.7747,
    "EPHEMERIS_TYPE": 0,
    "CLASSIFICATION_TYPE": "U",
    "NORAD_CAT_ID": 57374,
    "ELEMENT_SET_NO": 999,
    "REV_AT_EPOCH": 12853,
    "BSTAR": 0.00016545,
    "MEAN_MOTION_DOT": 2.032e-05,
    "MEAN_MOTION_DDOT": 0.0,
    "TLE_LINE1": "1 57374U 23099AY  25314.81194929  .00002032  00000+0  16545-3 0  9997",
    "TLE_LINE2": "2 57374  43.0025 148.9301 0001250 269.2952  90.7747 15.02535284128539",
    "COMMENT": "Grouped by shell and plane from TLE"
  },
  {
    "OBJECT_NAME": "STARLINK-6371",
    "OBJECT_ID": "23099BF",
    "EPOCH": "2025-11-10T23:15:47.589984",
    "MEAN_MOTION": 15.02539786,
    "ECCENTRICITY": 0.00012,
    "INCLINATION": 43.0031,
    "RA_OF_ASC_NODE": 148.3766,
    "ARG_OF_PERICENTER": 271.4576,
    "MEAN_ANOMALY": 88.6129,
    "EPHEMERIS_TYPE": 0,
    "CLASSIFICATION_TYPE": "U",
    "NORAD_CAT_ID": 57381,
    "ELEMENT_SET_NO": 999,
    "REV_AT_EPOCH": 12929,
    "BSTAR": 6.945700000000001e-05,
    "MEAN_MOTION_DOT": 7.35e-06,
    "MEAN_MOTION_DDOT": 0.0,
    "TLE_LINE1": "1 57381U 23099BF  25314.96930081  .00000735  00000+0  69457-4 0  9997",
    "TLE_LINE2": "2 57381  43.0031 148.3766 0001200 271.4576  88.6129 15.02539786129290",
    "COMMENT": "Grouped by shell and plane from TLE"
  },
  {
    "OBJECT_NAME": "STARLINK-31115",
    "OBJECT_ID": "24005B",
    "EPOCH": "2025-11-10T19:27:03.686976",
    "MEAN_MOTION": 15.02537748,
    "ECCENTRICITY": 0.0001073,
    "INCLINATION": 43.003,
    "RA_OF_ASC_NODE": 147.1866,
    "ARG_OF_PERICENTER": 269.0726,
    "MEAN_ANOMALY": 90.9993,
    "EPHEMERIS_TYPE": 0,
    "CLASSIFICATION_TYPE": "U",
    "NORAD_CAT_ID": 58729,
    "ELEMENT_SET_NO": 999,
    "REV_AT_EPOCH": 10253,
    "BSTAR": 9.886000000000002e-06,
    "MEAN_MOTION_DOT": -7e-07,
    "MEAN_MOTION_DDOT": 0.0,
    "TLE_LINE1": "1 58729U 24005B   25314.81045934 -.00000070  00000+0  98860-5 0  9994",
    "TLE_LINE2": "2 58729  43.0030 147.1866 0001073 269.0726  90.9993 15.02537748102531",
    "COMMENT": "Grouped by shell and plane from TLE"
  },
  {
    "OBJECT_NAME": "STARLINK-31180",
    "OBJECT_ID": "24005E",
    "EPOCH": "2025-11-11T05:39:47.191104",
    "MEAN_MOTION": 15.02541946,
    "ECCENTRICITY": 0.0001258,
    "INCLINATION": 43.0025,
    "RA_OF_ASC_NODE": 145.2283,
    "ARG_OF_PERICENTER": 264.8699,
    "MEAN_ANOMALY": 95.1999,
    "EPHEMERIS_TYPE": 0,
    "CLASSIFICATION_TYPE": "U",
    "NORAD_CAT_ID": 58732,
    "ELEMENT_SET_NO": 999,
    "REV_AT_EPOCH": 10259,
    "BSTAR": 0.00012998000000000003,
    "MEAN_MOTION_DOT": 1.553e-05,
    "MEAN_MOTION_DDOT": 0.0,
    "TLE_LINE1": "1 58732U 24005E   25315.23596286  .00001553  00000+0  12998-3 0  9998",
    "TLE_LINE2": "2 58732  43.0025 145.2283 0001258 264.8699  95.1999 15.02541946102592",
    "COMMENT": "Grouped by shell and plane from TLE"
  },
  {
    "OBJECT_NAME": "STARLINK-31164",
    "OBJECT_ID": "24005F",
    "EPOCH": "2025-11-10T19:22:26.044896",
    "MEAN_MOTION": 15.02536593,
    "ECCENTRICITY": 0.0001131,
    "INCLINATION": 43.0021,
    "RA_OF_ASC_NODE": 148.0202,
    "ARG_OF_PERICENTER": 261.0574,
    "MEAN_ANOMALY": 99.014,
    "EPHEMERIS_TYPE": 0,
    "CLASSIFICATION_TYPE": "U",
    "NORAD_CAT_ID": 58733,
    "ELEMENT_SET_NO": 999,
    "REV_AT_EPOCH": 10252,
    "BSTAR": 7.3527e-07,
    "MEAN_MOTION_DOT": -1.94e-06,
    "MEAN_MOTION_DDOT": 0.0,
    "TLE_LINE1": "1 58733U 24005F   25314.80724589 -.00000194  00000+0  73527-6 0  9999",
    "TLE_LINE2": "2 58733  43.0021 148.0202 0001131 261.0574  99.0140 15.02536593102528",
    "COMMENT": "Grouped by shell and plane from TLE"
  },
  {
    "OBJECT_NAME": "STARLINK-31152",
    "OBJECT_ID": "24005G",
    "EPOCH": "2025-11-10T22:29:05.827200",
    "MEAN_MOTION": 15.025452,
    "ECCENTRICITY": 0.0001438,
    "INCLINATION": 43.0028,
    "RA_OF_ASC_NODE": 147.2731,
    "ARG_OF_PERICENTER": 238.8205,
    "MEAN_ANOMALY": 121.2496,
    "EPHEMERIS_TYPE": 0,
    "CLASSIFICATION_TYPE": "U",
    "NORAD_CAT_ID": 58734,
    "ELEMENT_SET_NO": 999,
    "REV_AT_EPOCH": 10255,
    "BSTAR": 0.0,
    "MEAN_MOTION_DOT": -2.37e-06,
    "MEAN_MOTION_DDOT": 0.0,
    "TLE_LINE1": "1 58734U 24005G   25314.93687300 -.00000237  00000+0 -24340-5 0  9990",
    "TLE_LINE2": "2 58734  43.0028 147.2731 0001438 238.8205 121.2496 15.02545200102557",
    "COMMENT": "Grouped by shell and plane from TLE"
  },
  {
    "OBJECT_NAME": "STARLINK-31157",
    "OBJECT_ID": "24005H",
    "EPOCH": "2025-11-11T06:22:56.449632",
    "MEAN_MOTION": 15.02547518,
    "ECCENTRICITY": 0.000115,
    "INCLINATION": 43.0038,
    "RA_OF_ASC_NODE": 145.4394,
    "ARG_OF_PERICENTER": 272.5602,
    "MEAN_ANOMALY": 87.5108,
    "EPHEMERIS_TYPE": 0,
    "CLASSIFICATION_TYPE": "U",
    "NORAD_CAT_ID": 58735,
    "ELEMENT_SET_NO": 999,
    "REV_AT_EPOCH": 10260,
    "BSTAR": 0.0,
    "MEAN_MOTION_DOT": -2.98e-06,
    "MEAN_MOTION_DDOT": 0.0,
    "TLE_LINE1": "1 58735U 24005H   25315.26593113 -.00000298  00000+0 -69638-5 0  9992",
    "TLE_LINE2": "2 58735  43.0038 145.4394 0001150 272.5602  87.5108 15.02547518102605",
    "COMMENT": "Grouped by shell and plane from TLE"
  }
]